STARLINK-34026          
1 63842U 25093G   25147.50001157 -.00041403  00000+0 -70316-3 0  9993
2 63842  42.9998 257.5792 0001794 268.0145  91.1543 15.50597219  3932
STARLINK-33777          
1 63843U 25093H   25147.16668981  .00036071  00000+0  61832-3 0  9996
2 63843  42.9999 259.5214 0001676 266.6207  31.6227 15.50557245  4100
STARLINK-34041          
1 63844U 25093J   25147.16668981  .00028500  00000+0  49019-3 0  9998
2 63844  43.0000 259.5160 0001780 265.8236  34.3399 15.50559341  4104
STARLINK-34011          
1 63845U 25093K   25147.16668981 -.01624220  00000+0 -34434-1 0  9996
2 63845  42.9999 259.5244 0001458 255.6477  41.5028 15.47465216  3885
STARLINK-34044          
1 63846U 25093L   25147.50001157 -.00037987  00000+0 -64434-3 0  9993
2 63846  42.9998 257.5602 0001675 267.3280  99.5080 15.50599601  3931
STARLINK-34037          
1 63847U 25093M   25147.50001157 -.01597645  00000+0 -30000-1 0  9997
2 63847  42.9998 257.5557 0001493 276.9662  91.7688 15.50827110  4151
STARLINK-34010          
1 63848U 25093N   25147.50001157 -.00034961  00000+0 -59241-3 0  9994
2 63848  42.9998 257.5506 0001577 270.9104  99.7649 15.50595306  3933
STARLINK-34009          
1 63849U 25093P   25147.50001157 -.00064804  00000+0 -11068-2 0  9998
2 63849  42.9998 257.5458 0001568 273.0404  99.5467 15.50607806  4157
STARLINK-33958          
1 63850U 25093Q   25147.50001157 -.00064435  00000+0 -11004-2 0  9990
2 63850  42.9999 257.5405 0001643 272.3354 102.1708 15.50608066  3991
STARLINK-33776          
1 63851U 25093R   25147.50001157 -.00057576  00000+0 -98198-3 0  9999
2 63851  42.9998 257.5360 0001564 275.1256 101.2974 15.50602316  4140
STARLINK-34032          
1 63853U 25093T   25147.50001157 -.01600781  00000+0 -29959-1 0  9991
2 63853  42.9994 256.9676 0001539 258.4649 345.8647 15.50925170  4164
STARLINK-34015          
1 63854U 25093U   25147.16668981  .00042646  00000+0  72974-3 0  9992
2 63854  42.9996 258.9096 0001778 257.0544 286.3997 15.50541706  3940
STARLINK-33969          
1 63855U 25093V   25147.16668981  .00042842  00000+0  73309-3 0  9994
2 63855  42.9996 258.9047 0001772 256.7737 288.5948 15.50540278  3887
STARLINK-34002          
1 63856U 25093W   25147.16668981 -.01670981  00000+0 -32104-1 0  9995
2 63856  42.9995 258.8994 0001424 261.8762 285.3834 15.50331460  3886
STARLINK-33999          
1 63857U 25093X   25147.16668981  .00043293  00000+0  74080-3 0  9994
2 63857  42.9995 258.8912 0001945 255.4486 295.6660 15.50536226  4112
STARLINK-33976          
1 63858U 25093Y   25147.16668981  .00042865  00000+0  73359-3 0  9997
2 63858  42.9996 258.8947 0001803 259.5701 289.6279 15.50536254  3951
STARLINK-33821          
1 63859U 25093Z   25147.16668981 -.01498952  00000+0 -28995-1 0  9997
2 63859  42.9999 258.4856 0001422 263.2043  86.4260 15.49810293  4105
STARLINK-33888          
1 63860U 25093AA  25147.16668981  .00044820  00000+0  76642-3 0  9991
2 63860  42.9996 258.8858 0001810 259.0057 294.0321 15.50542113  4110
STARLINK-33896          
1 63861U 25093AB  25147.16668981  .00042639  00000+0  72968-3 0  9995
2 63861  42.9997 258.8797 0001825 260.4429 294.5086 15.50539725  3880
STARLINK-33878          
1 63862U 25093AC  25146.91668981 -.01513815  00000+0 -30319-1 0  9992
2 63862  42.9999 259.8407 0001744 282.4935 152.8226 15.48858335  4115
STARLINK-33954          
1 63863U 25093AD  25147.16668981  .00043168  00000+0  73865-3 0  9992
2 63863  42.9996 258.8751 0001918 261.5899 295.2770 15.50537851  3894
STARLINK-33863          
1 63864U 25094A   25147.50001157 -.00062421  00000+0 -45886-3 0  9995
2 63864  70.0008 258.6510 0003698 270.1048 359.0039 15.72954312  3965
STARLINK-33897          
1 63865U 25094B   25147.50001157 -.00092512  00000+0 -68348-3 0  9998
2 63865  70.0009 258.6486 0003587 270.7980   0.2554 15.72947460  3869
STARLINK-34022          
1 63866U 25094C   25147.50001157 -.00067478  00000+0 -49641-3 0  9997
2 63866  70.0010 258.6462 0003702 271.4649   1.4713 15.72956868  3867
STARLINK-33979          
1 63867U 25094D   25147.50001157 -.00110987  00000+0 -82207-3 0  9997
2 63867  70.0008 258.6440 0003508 273.8520   1.0393 15.72948128  3746
STARLINK-34007          
1 63868U 25094E   25147.50001157 -.00116759  00000+0 -86474-3 0  9991
2 63868  70.0008 258.6417 0004213 268.7404   8.0550 15.72963768  3850
STARLINK-34006          
1 63869U 25094F   25147.50001157 -.00083332  00000+0 -61509-3 0  9994
2 63869  70.0011 258.6389 0003630 263.7502  14.9741 15.72937318  3972
STARLINK-33986          
1 63870U 25094G   25147.50001157 -.00110921  00000+0 -82100-3 0  9991
2 63870  70.0009 258.6368 0003677 270.8087   9.8129 15.72963604  3864
STARLINK-34013          
1 63871U 25094H   25146.91668981 -.00063284  00000+0 -46586-3 0  9997
2 63871  70.0000 260.2819 0004190 267.5097 313.0454 15.72921583  3682
STARLINK-34059          
1 63872U 25094J   25147.50001157 -.00059807  00000+0 -43984-3 0  9995
2 63872  70.0010 258.6320 0003802 265.1500  19.3257 15.72932249  3918
STARLINK-33987          
1 63873U 25094K   25146.91668981 -.00015547  00000+0 -11270-3 0  9990
2 63873  70.0001 260.2767 0003445 263.8369 320.5557 15.72900043  3898
STARLINK-34052          
1 63874U 25094L   25147.16668981  .00032730  00000+0  24110-3 0  9997
2 63874  70.0005 259.5688 0003766 261.9602 299.5164 15.72885855  3804
STARLINK-34023          
1 63875U 25094M   25147.16668981  .00107660  00000+0  78455-3 0  9994
2 63875  70.0007 259.5664 0003589 276.7478 286.6428 15.72821111  3916
STARLINK-34061          
1 63876U 25094N   25147.16668981  .00051901  00000+0  38068-3 0  9997
2 63876  70.0007 259.5640 0003612 260.1609 305.1495 15.72875421  3803
STARLINK-33778          
1 63877U 25094P   25147.50001157 -.00049037  00000+0 -35976-3 0  9996
2 63877  70.0012 258.6203 0003478 270.0462  23.9859 15.72942174  3968
STARLINK-33901          
1 63878U 25094Q   25147.50001157 -.00130518  00000+0 -96861-3 0  9992
2 63878  70.0012 258.6182 0003567 266.4082  29.5621 15.72963029  3580
STARLINK-33812          
1 63879U 25094R   25146.91668981 -.00025750  00000+0 -18793-3 0  9990
2 63879  70.0004 260.2626 0003495 274.5885 321.3036 15.72903492  3698
STARLINK-33779          
1 63880U 25094S   25147.16668981 -.00023551  00000+0 -17168-3 0  9992
2 63880  70.0007 259.5542 0003930 259.1209 313.8636 15.72903696  3760
STARLINK-33905          
1 63881U 25094T   25147.50001157 -.00092108  00000+0 -68022-3 0  9996
2 63881  70.0011 258.6109 0003577 267.1705  34.5396 15.72955556  3966
STARLINK-34003          
1 63882U 25094U   25147.50001157 -.00062030  00000+0 -45623-3 0  9990
2 63882  70.0011 258.6086 0003682 266.9202  36.7051 15.72940395  3964
STARLINK-33968          
1 63883U 25094V   25147.50001157 -.00061113  00000+0 -44937-3 0  9999
2 63883  70.0014 258.6066 0003597 270.5452  34.9989 15.72943108  3964
STARLINK-33943          
1 63884U 25094W   25147.50001157 -.00096221  00000+0 -71107-3 0  9997
2 63884  70.0014 258.6044 0003496 268.4173  39.0461 15.72954219  3961
STARLINK-33858          
1 63885U 25094X   25147.16668981 -.00010671  00000+0 -76771-4 0  9992
2 63885  70.0009 259.5433 0003849 261.0773 321.4854 15.72904788  3910
STARLINK-33885          
1 63886U 25094Y   25147.50001157 -.00055394  00000+0 -40701-3 0  9991
2 63886  70.0013 258.5996 0003768 276.7526  34.5473 15.72935231  3756
STARLINK-33904          
1 63887U 25094Z   25147.50001157 -.00045576  00000+0 -33425-3 0  9998
2 63887  70.0013 258.5973 0003436 269.3149  43.8987 15.72933278  3856
STARLINK-33981          
1 63888U 25094AA  25147.50001157 -.00071275  00000+0 -52470-3 0  9995
2 63888  70.0013 258.5955 0003739 268.3022  46.8214 15.72955090  3854
STARLINK-33738          
1 63889U 25094AB  25145.73842028 -.00510656  85055-4 -17358-2 0  9993
2 63889  69.9941 263.2200 0003884 288.4971  71.5812 15.89553421  3720
STARLINK-34116          
1 63890U 25095A   25147.50001157 -.01354369  00000+0 -10050-1 0  9994
2 63890  42.9998 356.0546 0001173 250.5453 256.1243 15.74689536  3969
STARLINK-34123          
1 63891U 25095B   25147.50001157 -.01373626  00000+0 -10203-1 0  9992
2 63891  42.9997 356.0500 0001280 244.3040 264.2731 15.74705580  3961
STARLINK-34128          
1 63892U 25095C   25147.50001157 -.01362180  00000+0 -10111-1 0  9994
2 63892  42.9997 356.0451 0001450 252.3241 258.1765 15.74695953  3970
STARLINK-33972          
1 63893U 25095D   25147.50001157 -.01355878  00000+0 -10062-1 0  9996
2 63893  42.9998 356.0408 0001049 247.3668 265.0509 15.74692049  3971
STARLINK-33973          
1 63894U 25095E   25147.50001157 -.01360305  00000+0 -10095-1 0  9994
2 63894  42.9997 356.0354 0001429 249.4679 264.8626 15.74697002  3979
STARLINK-34119          
1 63895U 25095F   25147.50001157 -.01386706  00000+0 -10313-1 0  9991
2 63895  42.9997 356.0311 0000768 246.2958 269.9579 15.74709379  3977
STARLINK-34143          
1 63896U 25095G   25147.50001157 -.01356008  00000+0 -10063-1 0  9996
2 63896  42.9997 356.0260 0001129 250.4824 267.6877 15.74691452  3969
STARLINK-33957          
1 63897U 25095H   25147.50001157 -.01357555  00000+0 -10074-1 0  9997
2 63897  42.9998 356.0209 0001587 267.8116 252.2812 15.74691058  3970
STARLINK-34120          
1 63898U 25095J   25147.50001157 -.01357434  00000+0 -10072-1 0  9992
2 63898  42.9997 356.0159 0001432 245.9926 276.0069 15.74694887  3970
STARLINK-34134          
1 63899U 25095K   25147.50001157 -.01368710  00000+0 -10167-1 0  9997
2 63899  42.9998 356.0117 0001160 262.4320 261.4975 15.74695526  3971
STARLINK-34118          
1 63900U 25095L   25147.50001157 -.01377308  00000+0 -10234-1 0  9998
2 63900  42.9998 356.0068 0001007 247.9594 277.8720 15.74707814  3973
STARLINK-34125          
1 63901U 25095M   25147.50001157 -.01362834  00000+0 -10117-1 0  9997
2 63901  42.9997 356.0018 0001117 257.1970 270.5552 15.74698113  3975
